{
  "norad_id": 67085,
  "name": "STARLINK-35794",
  "history": [
    {
      "epoch": "2026-03-28T21:27:47.056032Z",
      "apogee_km": 570.8971819251583,
      "perigee_km": 568.1698043963634,
      "latitude_deg": 1.5495287850602925e-05,
      "longitude_deg": 177.80004587497137,
      "height_km": 571.8870802182845,
      "semi_major_axis_km": 6947.670493160761,
      "eccentricity": 0.00019628,
      "inclination_deg": 70.0012,
      "raan_deg": 326.0543,
      "arg_perigee_deg": 273.0988,
      "mean_anomaly_deg": 86.9947,
      "mean_motion_rev_day": 14.99146042
    },
    {
      "epoch": "2026-03-29T02:16:01.852896Z",
      "apogee_km": 570.8830231856227,
      "perigee_km": 568.1734337465223,
      "latitude_deg": 8.811432042386924e-05,
      "longitude_deg": 105.03592077029064,
      "height_km": 571.9179624545817,
      "semi_major_axis_km": 6947.665228466072,
      "eccentricity": 0.000195,
      "inclination_deg": 70.001,
      "raan_deg": 325.5491,
      "arg_perigee_deg": 271.588,
      "mean_anomaly_deg": 88.5057,
      "mean_motion_rev_day": 14.99147746
    }
  ]
}